1 53930U 22119AW  22282.58334491  .00048425  00000-0  34794-3 0  9991
2 53930  53.2190 180.6116 0001012 101.8277 147.8378 15.73167942  1302